[{"OBJECT_NAME":"ONEWEB-0132","OBJECT_ID":"2020-100W","EPOCH":"2026-02-01T23:17:35.520864","MEAN_MOTION":13.12440613,"ECCENTRICITY":0.00017259,"INCLINATION":87.8942,"RA_OF_ASC_NODE":17.5191,"ARG_OF_PERICENTER":85.4771,"MEAN_ANOMALY":274.6554,"EPHEMERIS_TYPE":0,"CLASSIFICATION_TYPE":"U","NORAD_CAT_ID":47278,"ELEMENT_SET_NO":999,"REV_AT_EPOCH":24684,"BSTAR":-0.0008808063,"MEAN_MOTION_DOT":-3.04e-6,"MEAN_MOTION_DDOT":0},{"OBJECT_NAME":"ONEWEB-0133","OBJECT_ID":"2020-100X","EPOCH":"2026-02-01T23:41:46.769568","MEAN_MOTION":13.12443173,"ECCENTRICITY":0.00016566,"INCLINATION":87.8944,"RA_OF_ASC_NODE":17.4779,"ARG_OF_PERICENTER":83.7134,"MEAN_ANOMALY":276.4183,"EPHEMERIS_TYPE":0,"CLASSIFICATION_TYPE":"U","NORAD_CAT_ID":47279,"ELEMENT_SET_NO":999,"REV_AT_EPOCH":24700,"BSTAR":-0.0010663693,"MEAN_MOTION_DOT":-3.71e-6,"MEAN_MOTION_DDOT":0},{"OBJECT_NAME":"ONEWEB-0134","OBJECT_ID":"2020-100Y","EPOCH":"2026-02-01T22:58:04.661760","MEAN_MOTION":13.12441619,"ECCENTRICITY":0.00015943,"INCLINATION":87.8952,"RA_OF_ASC_NODE":17.4809,"ARG_OF_PERICENTER":90.3937,"MEAN_ANOMALY":269.7374,"EPHEMERIS_TYPE":0,"CLASSIFICATION_TYPE":"U","NORAD_CAT_ID":47280,"ELEMENT_SET_NO":999,"REV_AT_EPOCH":24697,"BSTAR":0.00026114419,"MEAN_MOTION_DOT":1.07e-6,"MEAN_MOTION_DDOT":0},{"OBJECT_NAME":"ONEWEB-0135","OBJECT_ID":"2020-100Z","EPOCH":"2026-02-02T00:06:23.611680","MEAN_MOTION":13.12444251,"ECCENTRICITY":0.00015001,"INCLINATION":87.8944,"RA_OF_ASC_NODE":17.5099,"ARG_OF_PERICENTER":90.6537,"MEAN_ANOMALY":269.4764,"EPHEMERIS_TYPE":0,"CLASSIFICATION_TYPE":"U","NORAD_CAT_ID":47281,"ELEMENT_SET_NO":999,"REV_AT_EPOCH":24700,"BSTAR":0.00066478666,"MEAN_MOTION_DOT":2.52e-6,"MEAN_MOTION_DDOT":0},{"OBJECT_NAME":"ONEWEB-0136","OBJECT_ID":"2020-100AA","EPOCH":"2026-02-02T06:02:34.314720","MEAN_MOTION":13.12443836,"ECCENTRICITY":0.00015626,"INCLINATION":87.8949,"RA_OF_ASC_NODE":17.4315,"ARG_OF_PERICENTER":97.6722,"MEAN_ANOMALY":262.4584,"EPHEMERIS_TYPE":0,"CLASSIFICATION_TYPE":"U","NORAD_CAT_ID":47282,"ELEMENT_SET_NO":999,"REV_AT_EPOCH":24696,"BSTAR":0.0010209646,"MEAN_MOTION_DOT":3.8e-6,"MEAN_MOTION_DDOT":0},{"OBJECT_NAME":"ONEWEB-0137","OBJECT_ID":"2020-100AB","EPOCH":"2026-02-01T23:32:13.333632","MEAN_MOTION":13.12442441,"ECCENTRICITY":0.00019457,"INCLINATION":87.8947,"RA_OF_ASC_NODE":17.4907,"ARG_OF_PERICENTER":85.0557,"MEAN_ANOMALY":275.0794,"EPHEMERIS_TYPE":0,"CLASSIFICATION_TYPE":"U","NORAD_CAT_ID":47283,"ELEMENT_SET_NO":999,"REV_AT_EPOCH":24683,"BSTAR":-0.0010483945,"MEAN_MOTION_DOT":-3.64e-6,"MEAN_MOTION_DDOT":0},{"OBJECT_NAME":"ONEWEB-0138","OBJECT_ID":"2020-100AC","EPOCH":"2026-02-02T04:29:51.195840","MEAN_MOTION":13.12440795,"ECCENTRICITY":0.00016998,"INCLINATION":87.8953,"RA_OF_ASC_NODE":17.4588,"ARG_OF_PERICENTER":92.5828,"MEAN_ANOMALY":267.5495,"EPHEMERIS_TYPE":0,"CLASSIFICATION_TYPE":"U","NORAD_CAT_ID":47284,"ELEMENT_SET_NO":999,"REV_AT_EPOCH":24694,"BSTAR":7.8992848e-5,"MEAN_MOTION_DOT":4.1e-7,"MEAN_MOTION_DDOT":0},{"OBJECT_NAME":"ONEWEB-0139","OBJECT_ID":"2020-100AD","EPOCH":"2026-02-02T05:28:36.532704","MEAN_MOTION":13.12444641,"ECCENTRICITY":0.00018332,"INCLINATION":87.8946,"RA_OF_ASC_NODE":17.4388,"ARG_OF_PERICENTER":86.607,"MEAN_ANOMALY":273.5268,"EPHEMERIS_TYPE":0,"CLASSIFICATION_TYPE":"U","NORAD_CAT_ID":47285,"ELEMENT_SET_NO":999,"REV_AT_EPOCH":24702,"BSTAR":0.0001400294,"MEAN_MOTION_DOT":6.3e-7,"MEAN_MOTION_DDOT":0},{"OBJECT_NAME":"ONEWEB-0140","OBJECT_ID":"2020-100AE","EPOCH":"2026-02-01T22:53:12.178752","MEAN_MOTION":13.12441946,"ECCENTRICITY":0.00016598,"INCLINATION":87.895,"RA_OF_ASC_NODE":17.4813,"ARG_OF_PERICENTER":82.882,"MEAN_ANOMALY":277.2497,"EPHEMERIS_TYPE":0,"CLASSIFICATION_TYPE":"U","NORAD_CAT_ID":47286,"ELEMENT_SET_NO":999,"REV_AT_EPOCH":24695,"BSTAR":0.00057705688,"MEAN_MOTION_DOT":2.2e-6,"MEAN_MOTION_DDOT":0},{"OBJECT_NAME":"ONEWEB-0141","OBJECT_ID":"2020-100AF","EPOCH":"2026-02-01T23:58:51.902976","MEAN_MOTION":13.12444639,"ECCENTRICITY":0.00021425,"INCLINATION":87.8945,"RA_OF_ASC_NODE":17.4793,"ARG_OF_PERICENTER":85.1556,"MEAN_ANOMALY":274.9817,"EPHEMERIS_TYPE":0,"CLASSIFICATION_TYPE":"U","NORAD_CAT_ID":47287,"ELEMENT_SET_NO":999,"REV_AT_EPOCH":24694,"BSTAR":0.00016021744,"MEAN_MOTION_DOT":7.0e-7,"MEAN_MOTION_DDOT":0},{"OBJECT_NAME":"ONEWEB-0142","OBJECT_ID":"2020-100AG","EPOCH":"2026-02-01T23:42:11.216448","MEAN_MOTION":13.12442308,"ECCENTRICITY":0.00021759,"INCLINATION":87.8944,"RA_OF_ASC_NODE":17.5065,"ARG_OF_PERICENTER":93.6319,"MEAN_ANOMALY":266.5058,"EPHEMERIS_TYPE":0,"CLASSIFICATION_TYPE":"U","NORAD_CAT_ID":47288,"ELEMENT_SET_NO":999,"REV_AT_EPOCH":24693,"BSTAR":-0.00076783509,"MEAN_MOTION_DOT":-2.63e-6,"MEAN_MOTION_DDOT":0},{"OBJECT_NAME":"ONEWEB-0143","OBJECT_ID":"2020-100AH","EPOCH":"2026-02-02T05:25:58.136448","MEAN_MOTION":13.12445749,"ECCENTRICITY":0.00018431,"INCLINATION":87.8947,"RA_OF_ASC_NODE":17.4543,"ARG_OF_PERICENTER":85.3921,"MEAN_ANOMALY":274.7418,"EPHEMERIS_TYPE":0,"CLASSIFICATION_TYPE":"U","NORAD_CAT_ID":47289,"ELEMENT_SET_NO":999,"REV_AT_EPOCH":24694,"BSTAR":-0.00012374518,"MEAN_MOTION_DOT":-3.2e-7,"MEAN_MOTION_DDOT":0},{"OBJECT_NAME":"ONEWEB-0144","OBJECT_ID":"2020-100AJ","EPOCH":"2026-02-01T23:15:08.875008","MEAN_MOTION":13.12441662,"ECCENTRICITY":0.00018368,"INCLINATION":87.8951,"RA_OF_ASC_NODE":17.4748,"ARG_OF_PERICENTER":97.3283,"MEAN_ANOMALY":262.8054,"EPHEMERIS_TYPE":0,"CLASSIFICATION_TYPE":"U","NORAD_CAT_ID":47290,"ELEMENT_SET_NO":999,"REV_AT_EPOCH":24683,"BSTAR":-0.00066622172,"MEAN_MOTION_DOT":-2.27e-6,"MEAN_MOTION_DDOT":0},{"OBJECT_NAME":"ONEWEB-0145","OBJECT_ID":"2020-100AK","EPOCH":"2026-02-01T22:33:41.416416","MEAN_MOTION":13.12443178,"ECCENTRICITY":0.00018351,"INCLINATION":87.8949,"RA_OF_ASC_NODE":17.5197,"ARG_OF_PERICENTER":88.2597,"MEAN_ANOMALY":271.8742,"EPHEMERIS_TYPE":0,"CLASSIFICATION_TYPE":"U","NORAD_CAT_ID":47291,"ELEMENT_SET_NO":999,"REV_AT_EPOCH":24702,"BSTAR":0.0011429051,"MEAN_MOTION_DOT":4.24e-6,"MEAN_MOTION_DDOT":0},{"OBJECT_NAME":"ONEWEB-0146","OBJECT_ID":"2020-100AL","EPOCH":"2026-02-01T22:28:48.821952","MEAN_MOTION":13.12444561,"ECCENTRICITY":0.00017214,"INCLINATION":87.8948,"RA_OF_ASC_NODE":17.5054,"ARG_OF_PERICENTER":74.6141,"MEAN_ANOMALY":285.5178,"EPHEMERIS_TYPE":0,"CLASSIFICATION_TYPE":"U","NORAD_CAT_ID":47292,"ELEMENT_SET_NO":999,"REV_AT_EPOCH":24693,"BSTAR":0.0011600966,"MEAN_MOTION_DOT":4.3e-6,"MEAN_MOTION_DDOT":0},{"OBJECT_NAME":"ONEWEB-0147","OBJECT_ID":"2020-100AM","EPOCH":"2026-02-01T23:29:47.064480","MEAN_MOTION":13.12442492,"ECCENTRICITY":0.00015558,"INCLINATION":87.8947,"RA_OF_ASC_NODE":17.4763,"ARG_OF_PERICENTER":90.069,"MEAN_ANOMALY":270.0616,"EPHEMERIS_TYPE":0,"CLASSIFICATION_TYPE":"U","NORAD_CAT_ID":47293,"ELEMENT_SET_NO":999,"REV_AT_EPOCH":24683,"BSTAR":-0.001242405,"MEAN_MOTION_DOT":-4.34e-6,"MEAN_MOTION_DDOT":0},{"OBJECT_NAME":"ONEWEB-0115","OBJECT_ID":"2021-025A","EPOCH":"2026-02-02T06:21:52.085088","MEAN_MOTION":13.1346834,"ECCENTRICITY":0.00017953,"INCLINATION":87.9035,"RA_OF_ASC_NODE":347.0329,"ARG_OF_PERICENTER":79.8077,"MEAN_ANOMALY":280.3255,"EPHEMERIS_TYPE":0,"CLASSIFICATION_TYPE":"U","NORAD_CAT_ID":48042,"ELEMENT_SET_NO":999,"REV_AT_EPOCH":23588,"BSTAR":-0.0004537992,"MEAN_MOTION_DOT":-1.53e-6,"MEAN_MOTION_DDOT":0},{"OBJECT_NAME":"ONEWEB-0152","OBJECT_ID":"2021-025B","EPOCH":"2026-02-02T06:41:23.253504","MEAN_MOTION":13.13470227,"ECCENTRICITY":0.0001752,"INCLINATION":87.9027,"RA_OF_ASC_NODE":347.0337,"ARG_OF_PERICENTER":77.3173,"MEAN_ANOMALY":282.8152,"EPHEMERIS_TYPE":0,"CLASSIFICATION_TYPE":"U","NORAD_CAT_ID":48043,"ELEMENT_SET_NO":999,"REV_AT_EPOCH":23584,"BSTAR":-0.00071791842,"MEAN_MOTION_DOT":-2.49e-6,"MEAN_MOTION_DDOT":0},{"OBJECT_NAME":"ONEWEB-0153","OBJECT_ID":"2021-025C","EPOCH":"2026-02-02T06:09:41.656032","MEAN_MOTION":13.13468934,"ECCENTRICITY":0.00018543,"INCLINATION":87.9028,"RA_OF_ASC_NODE":347.0446,"ARG_OF_PERICENTER":83.2538,"MEAN_ANOMALY":276.8802,"EPHEMERIS_TYPE":0,"CLASSIFICATION_TYPE":"U","NORAD_CAT_ID":48044,"ELEMENT_SET_NO":999,"REV_AT_EPOCH":23583,"BSTAR":0.0002803898,"MEAN_MOTION_DOT":1.15e-6,"MEAN_MOTION_DDOT":0},{"OBJECT_NAME":"ONEWEB-0154","OBJECT_ID":"2021-025D","EPOCH":"2026-02-02T06:04:48.901728","MEAN_MOTION":13.13470625,"ECCENTRICITY":0.00017255,"INCLINATION":87.9029,"RA_OF_ASC_NODE":347.0424,"ARG_OF_PERICENTER":81.4067,"MEAN_ANOMALY":278.7258,"EPHEMERIS_TYPE":0,"CLASSIFICATION_TYPE":"U","NORAD_CAT_ID":48045,"ELEMENT_SET_NO":999,"REV_AT_EPOCH":23579,"BSTAR":0.00042852653,"MEAN_MOTION_DOT":1.69e-6,"MEAN_MOTION_DDOT":0},{"OBJECT_NAME":"ONEWEB-0116","OBJECT_ID":"2021-025E","EPOCH":"2026-02-02T07:00:53.069760","MEAN_MOTION":13.13470463,"ECCENTRICITY":0.00017663,"INCLINATION":87.903,"RA_OF_ASC_NODE":347.0204,"ARG_OF_PERICENTER":76.8218,"MEAN_ANOMALY":283.3108,"EPHEMERIS_TYPE":0,"CLASSIFICATION_TYPE":"U","NORAD_CAT_ID":48046,"ELEMENT_SET_NO":999,"REV_AT_EPOCH":23594,"BSTAR":-8.0823529e-5,"MEAN_MOTION_DOT":-1.7e-7,"MEAN_MOTION_DDOT":0},{"OBJECT_NAME":"ONEWEB-0150","OBJECT_ID":"2021-025F","EPOCH":"2026-02-02T06:26:45.196224","MEAN_MOTION":13.13468994,"ECCENTRICITY":0.00020311,"INCLINATION":87.9034,"RA_OF_ASC_NODE":347.0217,"ARG_OF_PERICENTER":80.4657,"MEAN_ANOMALY":279.6702,"EPHEMERIS_TYPE":0,"CLASSIFICATION_TYPE":"U","NORAD_CAT_ID":48047,"ELEMENT_SET_NO":999,"REV_AT_EPOCH":23583,"BSTAR":-0.0005553581,"MEAN_MOTION_DOT":-1.9e-6,"MEAN_MOTION_DDOT":0},{"OBJECT_NAME":"ONEWEB-0107","OBJECT_ID":"2021-025G","EPOCH":"2026-02-02T06:29:11.930208","MEAN_MOTION":13.13470852,"ECCENTRICITY":0.00019055,"INCLINATION":87.9033,"RA_OF_ASC_NODE":347.0174,"ARG_OF_PERICENTER":88.1844,"MEAN_ANOMALY":271.9503,"EPHEMERIS_TYPE":0,"CLASSIFICATION_TYPE":"U","NORAD_CAT_ID":48048,"ELEMENT_SET_NO":999,"REV_AT_EPOCH":23581,"BSTAR":-0.00067275453,"MEAN_MOTION_DOT":-2.33e-6,"MEAN_MOTION_DDOT":0}]
